NORAD_CAT_ID,OBJECT_NAME,OBJECT_TYPE,EPOCH,MEAN_MOTION,ECCENTRICITY,INCLINATION,RA_OF_ASC_NODE,ARG_OF_PERICENTER,MEAN_ANOMALY,BSTAR,MEAN_MOTION_DOT,MEAN_MOTION_DDOT,TLE_LINE0,TLE_LINE1,TLE_LINE2,SEMIMAJOR_AXIS,PERIOD,APOGEE,PERIGEE,DECAYED
52604.0,STARLINK-4013,PAYLOAD,2023-06-22 01:00:22,15.08845346,8.69e-05,53.2162,50.8062,119.5096,240.5983,5.3829e-05,5.69e-06,0.0,0 STARLINK-4013,1 52604U 22052G   23173.04193273  .00000569  00000-0  53829-4 0  9994,2 52604  53.2162  50.8062 0000869 119.5096 240.5983 15.08845346 61522,6917.864,95.437,540.33,539.128,0.0
52604.0,STARLINK-4013,PAYLOAD,2023-06-23 08:48:05,15.08844671,8.98e-05,53.216,44.855,86.7605,273.3489,6.4488e-05,7.39e-06,0.0,0 STARLINK-4013,1 52604U 22052G   23174.36673144  .00000739  00000-0  64488-4 0  9992,2 52604  53.2160  44.8550 0000898  86.7605 273.3489 15.08844671 61725,6917.866,95.437,540.352,539.11,0.0
52604.0,STARLINK-4013,PAYLOAD,2023-06-24 08:38:53,15.08839524,0.0001093,53.2173,40.3952,92.3334,267.7784,2.8119e-05,1.6e-06,0.0,0 STARLINK-4013,1 52604U 22052G   23175.36033805  .00000160  00000-0  28119-4 0  9996,2 52604  53.2173  40.3952 0001093  92.3334 267.7784 15.08839524 61878,6917.882,95.438,540.503,538.991,0.0
52604.0,STARLINK-4013,PAYLOAD,2023-06-25 00:32:45,15.08836856,0.000114,53.2176,37.4202,100.0211,260.091,-3.8606e-05,-9.02e-06,0.0,0 STARLINK-4013,1 52604U 22052G   23176.02274398 -.00000902  00000-0 -38606-4 0  9992,2 52604  53.2176  37.4202 0001140 100.0211 260.0910 15.08836856 61973,6917.89,95.438,540.544,538.966,0.0
52604.0,STARLINK-4013,PAYLOAD,2023-06-25 14:51:12,15.08841786,0.000115,53.2176,34.7453,102.6172,257.4949,9.276e-05,1.189e-05,0.0,0 STARLINK-4013,1 52604U 22052G   23176.61889923  .00001189  00000-0  92760-4 0  9990,2 52604  53.2176  34.7453 0001150 102.6172 257.4949 15.08841786 62067,6917.875,95.437,540.535,538.944,0.0
52604.0,STARLINK-4013,PAYLOAD,2023-06-26 00:23:31,15.08854735,0.0001106,53.2171,32.962,94.3145,265.7974,0.00030826,4.623e-05,0.0,0 STARLINK-4013,1 52604U 22052G   23177.01633430  .00004623  00000-0  30826-3 0  9995,2 52604  53.2171  32.9620 0001106  94.3145 265.7974 15.08854735 62121,6917.835,95.437,540.465,538.935,0.0
52604.0,STARLINK-4013,PAYLOAD,2023-06-26 16:17:23,15.08836347,0.0001113,53.2167,29.9883,87.282,272.83,0.00011095,1.478e-05,0.0,0 STARLINK-4013,1 52604U 22052G   23177.67874542  .00001478  00000-0  11095-3 0  9990,2 52604  53.2167  29.9883 0001113  87.2820 272.8300 15.08836347 62224,6917.892,95.438,540.527,538.987,0.0
52604.0,STARLINK-4013,PAYLOAD,2023-06-26 21:03:32,15.08845893,0.0001033,53.2166,29.0962,98.0726,262.0384,0.0002418,3.563e-05,0.0,0 STARLINK-4013,1 52604U 22052G   23177.87746157  .00003563  00000-0  24180-3 0  9998,2 52604  53.2166  29.0962 0001033  98.0726 262.0384 15.08845893 62250,6917.862,95.437,540.442,539.013,0.0
52604.0,STARLINK-4013,PAYLOAD,2023-06-27 20:54:19,15.08841061,0.0001148,53.2178,24.6373,103.6852,256.4268,7.9218e-05,9.73e-06,0.0,0 STARLINK-4013,1 52604U 22052G   23178.87106227  .00000973  00000-0  79218-4 0  9992,2 52604  53.2178  24.6373 0001148 103.6852 256.4268 15.08841061 62408,6917.877,95.437,540.536,538.948,0.0
52604.0,STARLINK-4013,PAYLOAD,2023-06-28 23:55:52,15.08845683,0.0001089,53.2168,19.5812,91.3286,268.7831,0.00014536,2.027e-05,0.0,0 STARLINK-4013,1 52604U 22052G   23179.99714109  .00002027  00000-0  14536-3 0  9993,2 52604  53.2168  19.5812 0001089  91.3286 268.7831 15.08845683 62570,6917.863,95.437,540.481,538.975,0.0
52604.0,STARLINK-4013,PAYLOAD,2023-06-29 19:00:30,15.08839528,0.0001133,53.2169,16.0134,96.918,263.1941,0.00013672,1.889e-05,0.0,0 STARLINK-4013,1 52604U 22052G   23180.79202546  .00001889  00000-0  13672-3 0  9995,2 52604  53.2169  16.0134 0001133  96.9180 263.1941 15.08839528 62699,6917.882,95.438,540.531,538.963,0.0
52604.0,STARLINK-4013,PAYLOAD,2023-06-29 23:46:40,15.0884574,0.0001081,53.2166,15.1207,96.8048,263.3067,0.00020977,3.053e-05,0.0,0 STARLINK-4013,1 52604U 22052G   23180.99074231  .00003053  00000-0  20977-3 0  9996,2 52604  53.2166  15.1207 0001081  96.8048 263.3067 15.08845740 62729,6917.863,95.437,540.476,538.98,0.0
52604.0,STARLINK-4013,PAYLOAD,2023-06-30 22:02:04,15.08842286,9.83e-05,53.2163,10.9547,96.6056,263.5048,0.00018949,2.729e-05,0.0,0 STARLINK-4013,1 52604U 22052G   23181.91810486  .00002729  00000-0  18949-3 0  9994,2 52604  53.2163  10.9547 0000983  96.6056 263.5048 15.08842286 62861,6917.873,95.437,540.418,539.058,0.0
52604.0,STARLINK-4013,PAYLOAD,2023-07-01 18:42:05,15.08837348,0.0001014,53.2169,7.0897,94.7708,265.34,-2.9729e-08,-2.88e-06,0.0,0 STARLINK-4013,1 52604U 22052G   23182.77922914 -.00000288  00000-0 -29729-7 0  9991,2 52604  53.2169   7.0897 0001014  94.7708 265.3400 15.08837348 62990,6917.888,95.438,540.455,539.052,0.0
52604.0,STARLINK-4013,PAYLOAD,2023-07-02 15:22:05,15.08860666,0.0001216,53.2169,3.2245,82.4835,277.6295,-0.00024764,-4.229e-05,0.0,0 STARLINK-4013,1 52604U 22052G   23183.64033687 -.00004229  00000-0 -24764-3 0  9997,2 52604  53.2169   3.2245 0001216  82.4835 277.6295 15.08860666 63127,6917.817,95.436,540.523,538.841,0.0
52604.0,STARLINK-4013,PAYLOAD,2023-07-02 23:19:01,15.08851883,0.0001064,53.217,1.7373,87.3273,272.7841,0.00022046,3.224e-05,0.0,0 STARLINK-4013,1 52604U 22052G   23183.97154185  .00003224  00000-0  22046-3 0  9993,2 52604  53.2170   1.7373 0001064  87.3273 272.7841 15.08851883 63174,6917.844,95.437,540.445,538.973,0.0
52604.0,STARLINK-4013,PAYLOAD,2023-07-03 12:02:07,15.08836996,9.98e-05,53.2171,359.3612,69.3122,290.7977,2.7199e-05,1.45e-06,0.0,0 STARLINK-4013,1 52604U 22052G   23184.50147030  .00000145  00000-0  27199-4 0  9998,2 52604  53.2171 359.3612 0000998  69.3122 290.7977 15.08836996 63258,6917.89,95.438,540.445,539.064,0.0
52604.0,STARLINK-4013,PAYLOAD,2023-07-04 16:39:03,15.08843668,0.000108,53.2166,354.0075,81.4138,278.6976,6.3394e-05,7.21e-06,0.0,0 STARLINK-4013,1 52604U 22052G   23185.69378684  .00000721  00000-0  63394-4 0  9997,2 52604  53.2166 354.0075 0001080  81.4138 278.6976 15.08843668 63430,6917.869,95.437,540.481,538.987,0.0
52604.0,STARLINK-4013,PAYLOAD,2023-07-05 18:05:13,15.08837212,0.0001094,53.2173,349.2506,92.1613,267.9504,4.607e-05,4.45e-06,0.0,0 STARLINK-4013,1 52604U 22052G   23186.75363085  .00000445  00000-0  46070-4 0  9999,2 52604  53.2173 349.2506 0001094  92.1613 267.9504 15.08837212 63598,6917.889,95.438,540.511,538.997,0.0
52604.0,STARLINK-4013,PAYLOAD,2023-07-07 03:28:19,15.08846246,0.00011,53.2181,343.0042,86.2735,273.8383,8.54e-05,1.072e-05,0.0,0 STARLINK-4013,1 52604U 22052G   23188.14466917  .00001072  00000-0  85400-4 0  9999,2 52604  53.2181 343.0042 0001100  86.2735 273.8383 15.08846246 63803,6917.861,95.437,540.487,538.965,0.0
52604.0,STARLINK-4013,PAYLOAD,2023-07-08 09:40:39,15.08842334,0.0001149,53.2176,337.3562,85.4985,274.6138,0.00011698,1.575e-05,0.0,0 STARLINK-4013,1 52604U 22052G   23189.40323166  .00001575  00000-0  11698-3 0  9992,2 52604  53.2176 337.3562 0001149  85.4985 274.6138 15.08842334 63992,6917.873,95.437,540.533,538.943,0.0
52604.0,STARLINK-4013,PAYLOAD,2023-07-09 17:28:22,15.08840647,0.0001226,53.2181,331.4073,82.4472,277.666,-1.3995e-05,-5.11e-06,0.0,0 STARLINK-4013,1 52604U 22052G   23190.72803580 -.00000511  00000-0 -13995-4 0  9996,2 52604  53.2181 331.4073 0001226  82.4472 277.6660 15.08840647 64195,6917.878,95.438,540.592,538.895,0.0
52604.0,STARLINK-4013,PAYLOAD,2023-07-10 18:54:31,15.088447,0.0001216,53.217,326.6485,94.494,265.6191,7.9767e-05,9.82e-06,0.0,0 STARLINK-4013,1 52604U 22052G   23191.78786931  .00000982  00000-0  79767-4 0  9992,2 52604  53.2170 326.6485 0001216  94.4940 265.6191 15.08844700 64356,6917.866,95.437,540.572,538.89,0.0
52604.0,STARLINK-4013,PAYLOAD,2023-07-11 09:13:00,15.08834469,0.0001201,53.2158,323.9722,92.9279,267.185,6.0918e-05,6.82e-06,0.0,0 STARLINK-4013,1 52604U 22052G   23192.38403686  .00000682  00000-0  60918-4 0  9997,2 52604  53.2158 323.9722 0001201  92.9279 267.1850 15.08834469 64448,6917.897,95.438,540.593,538.931,0.0
52604.0,STARLINK-4013,PAYLOAD,2023-07-12 17:00:43,15.08848035,0.0001286,53.2195,318.0293,97.1784,262.9355,2.1702e-05,5.8e-07,0.0,0 STARLINK-4013,1 52604U 22052G   23193.70883270  .00000058  00000-0  21702-4 0  9990,2 52604  53.2195 318.0293 0001286  97.1784 262.9355 15.08848035 64647,6917.856,95.437,540.61,538.831,0.0
52604.0,STARLINK-4013,PAYLOAD,2023-07-13 13:40:44,15.08833025,0.0001289,53.2185,314.1625,97.0657,263.0482,7.3328e-06,-1.71e-06,0.0,0 STARLINK-4013,1 52604U 22052G   23194.56996428 -.00000171  00000-0  73328-5 0  9994,2 52604  53.2185 314.1625 0001289  97.0657 263.0482 15.08833025 64773,6917.902,95.438,540.658,538.875,0.0
52604.0,STARLINK-4013,PAYLOAD,2023-07-13 18:26:53,15.08840675,0.0001075,53.2177,313.2679,91.1474,268.9641,6.0506e-05,6.75e-06,0.0,0 STARLINK-4013,1 52604U 22052G   23194.76867798  .00000675  00000-0  60506-4 0  9994,2 52604  53.2177 313.2679 0001075  91.1474 268.9641 15.08840675 64802,6917.878,95.438,540.487,539.0,0.0
52604.0,STARLINK-4013,PAYLOAD,2023-07-14 07:09:59,15.08834335,0.000106,53.2184,310.8923,104.0415,256.0696,2.634e-05,1.31e-06,0.0,0 STARLINK-4013,1 52604U 22052G   23195.29860340  .00000131  00000-0  26340-4 0  9994,2 52604  53.2184 310.8923 0001060 104.0415 256.0696 15.08834335 64880,6917.898,95.438,540.496,539.029,0.0
52604.0,STARLINK-4013,PAYLOAD,2023-07-14 15:06:54,15.08845075,0.000123,53.2179,309.4042,91.3006,268.8127,8.9561e-05,1.138e-05,0.0,0 STARLINK-4013,1 52604U 22052G   23195.62979638  .00001138  00000-0  89561-4 0  9994,2 52604  53.2179 309.4042 0001230  91.3006 268.8127 15.08845075 64932,6917.865,95.437,540.581,538.879,0.0
52604.0,STARLINK-4013,PAYLOAD,2023-07-15 16:33:04,15.08848061,0.0001326,53.2188,304.6428,69.8383,290.2751,0.00012442,1.693e-05,0.0,0 STARLINK-4013,1 52604U 22052G   23196.68963539  .00001693  00000-0  12442-3 0  9993,2 52604  53.2188 304.6428 0001326  69.8383 290.2751 15.08848061 65099,6917.856,95.437,540.638,538.803,0.0
